STARLINK-33551          
1 62110U 24220Y   26068.38149222  .00043106  00000+0  15658-2 0  9993
2 62110  43.0034 207.3225 0002246 277.8737  82.1860 15.27600504 73142
BLUEBON                 
1 62688U 25009CH  26068.70316231  .00010452  00000+0  37313-3 0  9992
2 62688  97.4017 152.2033 0001193  43.3900 316.7434 15.29047253 63767
